CCSDS_OMM_VERS = 2.0
CREATION_DATE  = 
ORIGINATOR     = 

OBJECT_NAME    = STARLINK-36931
OBJECT_ID      = 2026-039Q
CENTER_NAME    = EARTH
REF_FRAME      = TEME
TIME_SYSTEM    = UTC
MEAN_ELEMENT_THEORY = SGP/SGP4

EPOCH          = 2026-03-20T20:00:01.999872
MEAN_MOTION    = 15.55874038
ECCENTRICITY   = .00015912
INCLINATION    = 42.9992
RA_OF_ASC_NODE = 347.2264
ARG_OF_PERICENTER = 253.9366
MEAN_ANOMALY   = 100.5338

EPHEMERIS_TYPE = 0
CLASSIFICATION_TYPE = U
NORAD_CAT_ID   = 68000
ELEMENT_SET_NO = 999
REV_AT_EPOCH   = 466
BSTAR          = -.30501119E-1
MEAN_MOTION_DOT = -.191257E-1
MEAN_MOTION_DDOT = 0

CCSDS_OMM_VERS = 2.0
CREATION_DATE  = 
ORIGINATOR     = 

OBJECT_NAME    = STARLINK-36903
OBJECT_ID      = 2026-039R
CENTER_NAME    = EARTH
REF_FRAME      = TEME
TIME_SYSTEM    = UTC
MEAN_ELEMENT_THEORY = SGP/SGP4

EPOCH          = 2026-03-20T20:00:01.999872
MEAN_MOTION    = 15.51483594
ECCENTRICITY   = .00011766
INCLINATION    = 42.9998
RA_OF_ASC_NODE = 347.4662
ARG_OF_PERICENTER = 262.1083
MEAN_ANOMALY   = 355.3237

EPHEMERIS_TYPE = 0
CLASSIFICATION_TYPE = U
NORAD_CAT_ID   = 68001
ELEMENT_SET_NO = 999
REV_AT_EPOCH   = 466
BSTAR          = -.23365788E-1
MEAN_MOTION_DOT = -.1281868E-1
MEAN_MOTION_DDOT = 0

CCSDS_OMM_VERS = 2.0
CREATION_DATE  = 
ORIGINATOR     = 

OBJECT_NAME    = STARLINK-36898
OBJECT_ID      = 2026-039S
CENTER_NAME    = EARTH
REF_FRAME      = TEME
TIME_SYSTEM    = UTC
MEAN_ELEMENT_THEORY = SGP/SGP4

EPOCH          = 2026-03-20T20:00:01.999872
MEAN_MOTION    = 15.54747541
ECCENTRICITY   = .00015686
INCLINATION    = 42.9997
RA_OF_ASC_NODE = 347.2571
ARG_OF_PERICENTER = 251.3180
MEAN_ANOMALY   = 90.2717

EPHEMERIS_TYPE = 0
CLASSIFICATION_TYPE = U
NORAD_CAT_ID   = 68002
ELEMENT_SET_NO = 999
REV_AT_EPOCH   = 466
BSTAR          = -.31479646E-1
MEAN_MOTION_DOT = -.1895043E-1
MEAN_MOTION_DDOT = 0

CCSDS_OMM_VERS = 2.0
CREATION_DATE  = 
ORIGINATOR     = 

OBJECT_NAME    = STARLINK-36862
OBJECT_ID      = 2026-039T
CENTER_NAME    = EARTH
REF_FRAME      = TEME
TIME_SYSTEM    = UTC
MEAN_ELEMENT_THEORY = SGP/SGP4

EPOCH          = 2026-03-20T20:00:01.999872
MEAN_MOTION    = 15.52793900
ECCENTRICITY   = .00013884
INCLINATION    = 42.9995
RA_OF_ASC_NODE = 347.3641
ARG_OF_PERICENTER = 251.4631
MEAN_ANOMALY   = 46.7021

EPHEMERIS_TYPE = 0
CLASSIFICATION_TYPE = U
NORAD_CAT_ID   = 68003
ELEMENT_SET_NO = 999
REV_AT_EPOCH   = 466
BSTAR          = -.38447963E-1
MEAN_MOTION_DOT = -.2162333E-1
MEAN_MOTION_DDOT = 0

CCSDS_OMM_VERS = 2.0
CREATION_DATE  = 
ORIGINATOR     = 

OBJECT_NAME    = STARLINK-36888
OBJECT_ID      = 2026-039U
CENTER_NAME    = EARTH
REF_FRAME      = TEME
TIME_SYSTEM    = UTC
MEAN_ELEMENT_THEORY = SGP/SGP4

EPOCH          = 2026-03-20T20:00:01.999872
MEAN_MOTION    = 15.52303545
ECCENTRICITY   = .00012142
INCLINATION    = 42.9993
RA_OF_ASC_NODE = 347.4172
ARG_OF_PERICENTER = 254.9203
MEAN_ANOMALY   = 22.1046

EPHEMERIS_TYPE = 0
CLASSIFICATION_TYPE = U
NORAD_CAT_ID   = 68004
ELEMENT_SET_NO = 999
REV_AT_EPOCH   = 466
BSTAR          = -.34404519E-1
MEAN_MOTION_DOT = -.1927208E-1
MEAN_MOTION_DDOT = 0

CCSDS_OMM_VERS = 2.0
CREATION_DATE  = 
ORIGINATOR     = 

OBJECT_NAME    = STARLINK-36910
OBJECT_ID      = 2026-039V
CENTER_NAME    = EARTH
REF_FRAME      = TEME
TIME_SYSTEM    = UTC
MEAN_ELEMENT_THEORY = SGP/SGP4

EPOCH          = 2026-03-20T20:00:01.999872
MEAN_MOTION    = 15.55813354
ECCENTRICITY   = .00012096
INCLINATION    = 42.9993
RA_OF_ASC_NODE = 347.1790
ARG_OF_PERICENTER = 277.3793
MEAN_ANOMALY   = 95.6859

EPHEMERIS_TYPE = 0
CLASSIFICATION_TYPE = U
NORAD_CAT_ID   = 68005
ELEMENT_SET_NO = 999
REV_AT_EPOCH   = 466
BSTAR          = -.29348144E-1
MEAN_MOTION_DOT = -.1844646E-1
MEAN_MOTION_DDOT = 0

CCSDS_OMM_VERS = 2.0
CREATION_DATE  = 
ORIGINATOR     = 

OBJECT_NAME    = STARLINK-36889
OBJECT_ID      = 2026-039W
CENTER_NAME    = EARTH
REF_FRAME      = TEME
TIME_SYSTEM    = UTC
MEAN_ELEMENT_THEORY = SGP/SGP4

EPOCH          = 2026-03-20T20:00:01.999872
MEAN_MOTION    = 15.50519717
ECCENTRICITY   = .00010011
INCLINATION    = 42.9997
RA_OF_ASC_NODE = 347.4793
ARG_OF_PERICENTER = 237.7744
MEAN_ANOMALY   = 13.5671

EPHEMERIS_TYPE = 0
CLASSIFICATION_TYPE = U
NORAD_CAT_ID   = 68006
ELEMENT_SET_NO = 999
REV_AT_EPOCH   = 466
BSTAR          = .92503143E-3
MEAN_MOTION_DOT = .54186E-3
MEAN_MOTION_DDOT = 0

CCSDS_OMM_VERS = 2.0
CREATION_DATE  = 
ORIGINATOR     = 

OBJECT_NAME    = STARLINK-36592
OBJECT_ID      = 2026-039X
CENTER_NAME    = EARTH
REF_FRAME      = TEME
TIME_SYSTEM    = UTC
MEAN_ELEMENT_THEORY = SGP/SGP4

EPOCH          = 2026-03-20T20:00:01.999872
MEAN_MOTION    = 15.55047501
ECCENTRICITY   = .00013752
INCLINATION    = 42.9994
RA_OF_ASC_NODE = 347.1973
ARG_OF_PERICENTER = 258.8674
MEAN_ANOMALY   = 106.6603

EPHEMERIS_TYPE = 0
CLASSIFICATION_TYPE = U
NORAD_CAT_ID   = 68007
ELEMENT_SET_NO = 999
REV_AT_EPOCH   = 466
BSTAR          = -.31339245E-1
MEAN_MOTION_DOT = -.1906109E-1
MEAN_MOTION_DDOT = 0

CCSDS_OMM_VERS = 2.0
CREATION_DATE  = 
ORIGINATOR     = 

OBJECT_NAME    = STARLINK-36911
OBJECT_ID      = 2026-039Y
CENTER_NAME    = EARTH
REF_FRAME      = TEME
TIME_SYSTEM    = UTC
MEAN_ELEMENT_THEORY = SGP/SGP4

EPOCH          = 2026-03-20T20:00:01.999872
MEAN_MOTION    = 15.53494690
ECCENTRICITY   = .00013426
INCLINATION    = 42.9992
RA_OF_ASC_NODE = 347.2758
ARG_OF_PERICENTER = 239.2083
MEAN_ANOMALY   = 94.7556

EPHEMERIS_TYPE = 0
CLASSIFICATION_TYPE = U
NORAD_CAT_ID   = 68008
ELEMENT_SET_NO = 999
REV_AT_EPOCH   = 466
BSTAR          = -.3111586E-1
MEAN_MOTION_DOT = -.180027E-1
MEAN_MOTION_DDOT = 0

CCSDS_OMM_VERS = 2.0
CREATION_DATE  = 
ORIGINATOR     = 

OBJECT_NAME    = STARLINK-36956
OBJECT_ID      = 2026-039Z
CENTER_NAME    = EARTH
REF_FRAME      = TEME
TIME_SYSTEM    = UTC
MEAN_ELEMENT_THEORY = SGP/SGP4

EPOCH          = 2026-03-20T20:00:01.999872
MEAN_MOTION    = 15.52432957
ECCENTRICITY   = .00014471
INCLINATION    = 42.9992
RA_OF_ASC_NODE = 347.3357
ARG_OF_PERICENTER = 259.1737
MEAN_ANOMALY   = 50.2442

EPHEMERIS_TYPE = 0
CLASSIFICATION_TYPE = U
NORAD_CAT_ID   = 68009
ELEMENT_SET_NO = 999
REV_AT_EPOCH   = 466
BSTAR          = -.35408579E-1
MEAN_MOTION_DOT = -.1986089E-1
MEAN_MOTION_DDOT = 0

CCSDS_OMM_VERS = 2.0
CREATION_DATE  = 
ORIGINATOR     = 

OBJECT_NAME    = STARLINK-36953
OBJECT_ID      = 2026-039AA
CENTER_NAME    = EARTH
REF_FRAME      = TEME
TIME_SYSTEM    = UTC
MEAN_ELEMENT_THEORY = SGP/SGP4

EPOCH          = 2026-03-20T20:00:01.999872
MEAN_MOTION    = 15.59834080
ECCENTRICITY   = .00013289
INCLINATION    = 42.9996
RA_OF_ASC_NODE = 346.9019
ARG_OF_PERICENTER = 257.1008
MEAN_ANOMALY   = 226.6378

EPHEMERIS_TYPE = 0
CLASSIFICATION_TYPE = U
NORAD_CAT_ID   = 68010
ELEMENT_SET_NO = 999
REV_AT_EPOCH   = 466
BSTAR          = -.26527654E-1
MEAN_MOTION_DOT = -.1931234E-1
MEAN_MOTION_DDOT = 0

CCSDS_OMM_VERS = 2.0
CREATION_DATE  = 
ORIGINATOR     = 

OBJECT_NAME    = STARLINK-36991
OBJECT_ID      = 2026-039AB
CENTER_NAME    = EARTH
REF_FRAME      = TEME
TIME_SYSTEM    = UTC
MEAN_ELEMENT_THEORY = SGP/SGP4

EPOCH          = 2026-03-20T20:00:01.999872
MEAN_MOTION    = 15.50671457
ECCENTRICITY   = .00022539
INCLINATION    = 42.9996
RA_OF_ASC_NODE = 348.0081
ARG_OF_PERICENTER = 252.3447
MEAN_ANOMALY   = 144.1744

EPHEMERIS_TYPE = 0
CLASSIFICATION_TYPE = U
NORAD_CAT_ID   = 68011
ELEMENT_SET_NO = 999
REV_AT_EPOCH   = 466
BSTAR          = -.3362485E-2
MEAN_MOTION_DOT = -.193467E-2
MEAN_MOTION_DDOT = 0

CCSDS_OMM_VERS = 2.0
CREATION_DATE  = 
ORIGINATOR     = 

OBJECT_NAME    = STARLINK-36936
OBJECT_ID      = 2026-039AC
CENTER_NAME    = EARTH
REF_FRAME      = TEME
TIME_SYSTEM    = UTC
MEAN_ELEMENT_THEORY = SGP/SGP4

EPOCH          = 2026-03-20T20:00:01.999872
MEAN_MOTION    = 15.52335965
ECCENTRICITY   = .00013516
INCLINATION    = 42.9993
RA_OF_ASC_NODE = 347.2946
ARG_OF_PERICENTER = 256.9183
MEAN_ANOMALY   = 68.2365

EPHEMERIS_TYPE = 0
CLASSIFICATION_TYPE = U
NORAD_CAT_ID   = 68012
ELEMENT_SET_NO = 999
REV_AT_EPOCH   = 466
BSTAR          = -.39325724E-1
MEAN_MOTION_DOT = -.2173531E-1
MEAN_MOTION_DDOT = 0

CCSDS_OMM_VERS = 2.0
CREATION_DATE  = 
ORIGINATOR     = 

OBJECT_NAME    = STARLINK-36967
OBJECT_ID      = 2026-039AD
CENTER_NAME    = EARTH
REF_FRAME      = TEME
TIME_SYSTEM    = UTC
MEAN_ELEMENT_THEORY = SGP/SGP4

EPOCH          = 2026-03-20T20:00:01.999872
MEAN_MOTION    = 15.50602328
ECCENTRICITY   = .0001445
INCLINATION    = 42.9998
RA_OF_ASC_NODE = 347.9344
ARG_OF_PERICENTER = 264.3303
MEAN_ANOMALY   = 162.1112

EPHEMERIS_TYPE = 0
CLASSIFICATION_TYPE = U
NORAD_CAT_ID   = 68013
ELEMENT_SET_NO = 999
REV_AT_EPOCH   = 466
BSTAR          = -.1483025E-2
MEAN_MOTION_DOT = -.86461E-3
MEAN_MOTION_DDOT = 0

CCSDS_OMM_VERS = 2.0
CREATION_DATE  = 
ORIGINATOR     = 

OBJECT_NAME    = STARLINK-36985
OBJECT_ID      = 2026-039AE
CENTER_NAME    = EARTH
REF_FRAME      = TEME
TIME_SYSTEM    = UTC
MEAN_ELEMENT_THEORY = SGP/SGP4

EPOCH          = 2026-03-20T20:00:01.999872
MEAN_MOTION    = 15.60323694
ECCENTRICITY   = .00013531
INCLINATION    = 42.9995
RA_OF_ASC_NODE = 346.8574
ARG_OF_PERICENTER = 258.9914
MEAN_ANOMALY   = 242.5429

EPHEMERIS_TYPE = 0
CLASSIFICATION_TYPE = U
NORAD_CAT_ID   = 68014
ELEMENT_SET_NO = 999
REV_AT_EPOCH   = 466
BSTAR          = -.26041396E-1
MEAN_MOTION_DOT = -.1932045E-1
MEAN_MOTION_DDOT = 0

